ONEWEB-0645             
1 55809U 23029P   24260.48472203  .00000143  00000+0  32442-3 0  9992
2 55809  87.9103  72.0221 0001646 110.9408 249.1901 13.19727475 74666
ONEWEB-0646             
1 55810U 23029Q   24260.51471965  .00000177  00000+0  40909-3 0  9996
2 55810  87.9102  72.0139 0001911  98.0749 262.0601 13.19727984 74659
ONEWEB-0648             
1 55811U 23029R   24260.48417824  .00000034  00000+0  57389-4 0  9990
2 55811  87.8951  56.7191 0002066 127.0913 233.0406 13.14500786 75483
ONEWEB-0649             
1 55812U 23029S   24260.55341089 -.00000912  00000+0 -23107-2 0  9994
2 55812  87.9094  72.0003 0001884 106.1676 253.9664 13.19729291 74695
ONEWEB-0650             
1 55813U 23029T   24260.47288642  .00000135  00000+0  30467-3 0  9994
2 55813  87.9102  72.0200 0001955  99.3066 260.8287 13.19724077 74651
ONEWEB-0652             
1 55814U 23029U   24260.69348622 -.00000570  00000+0 -15711-2 0  9993
2 55814  87.8951  56.6884 0001612  90.7171 269.4144 13.14501606 76173
ONEWEB-0653             
1 55815U 23029V   24260.52542211  .00000092  00000+0  21323-3 0  9990
2 55815  87.8956  56.7045 0001373  91.4993 268.6294 13.14501337 75495
ONEWEB-0654             
1 55816U 23029W   24260.44454518  .00000163  00000+0  40504-3 0  9995
2 55816  87.8953  56.7285 0001509  78.1084 282.0215 13.14501745 75501
